#aV2013  1 11  0  0  0.00000000     288 DD+AD WGS84 FIT  NGA
## 1722 432000.00000000   300.00000000 56303 0.0000000000000
+   31     1  2  3  4  5  6  7  8  9 10 11 12 13 14 15 16 17
+         18 19 20 21 22 23 24 25 26 28 29 30 31 32  0  0  0
+          0  0  0  0  0  0  0  0  0  0  0  0  0  0  0  0  0
+          0  0  0  0  0  0  0  0  0  0  0  0  0  0  0  0  0
+          0  0  0  0  0  0  0  0  0  0  0  0  0  0  0  0  0
++         2  2  2  2  2  2  2  2  2  2  2  2  2  2  2  2  2
++         2  2  2  2  2  2  2  2  2  2  2  2  2  2  2  0  0
++         0  0  0  0  0  0  0  0  0  0  0  0  0  0  0  0  0
++         0  0  0  0  0  0  0  0  0  0  0  0  0  0  0  0  0
++         0  0  0  0  0  0  0  0  0  0  0  0  0  0  0  0  0
%c cc cc ccc ccc cccc cccc cccc cccc ccccc ccccc ccccc ccccc
%c cc cc ccc ccc cccc cccc cccc cccc ccccc ccccc ccccc ccccc
%f  0.0000000  0.000000000  0.00000000000  0.000000000000000
%f  0.0000000  0.000000000  0.00000000000  0.000000000000000
%i    0    0    0    0      0      0      0      0         0
%i    0    0    0    0      0      0      0      0         0
/*      NGA, ST. LOUIS,MO.                                  
/*   EPHEMERIS COMPUTED FROM  1 DAYS OF DATA
/*   EPOCHA SMOOTHER  
/* CCCCCCCCCCCCCCCCCCCCCCCCCCCCCCCCCCCCCCCCCCCCCCCCCCCCCCCCC
*  2013  1 11  8 15  0.00000000                                                 
P  1  14115.435895 -20789.644862   8477.647433    292.711289                    
V  1  -1278.505746  11071.478199  29261.112739      0.023167                    
P  2 -16189.981888     62.700345 -20808.001353    414.445161                    
V  2   8035.923863 -25782.925568  -6791.257746      0.013037                    
P  3  21170.164169   4258.568975  15112.632681    153.584564                    
V  3  13041.325406  15469.736016 -21676.641324      0.048005                    
P  4 -10242.226379 -14496.746648 -19955.473974    101.620212                    
V  4  10017.978832 -22839.334042  11903.635496      0.110649                    
P  5 -26395.756306   2963.551574  -2029.227602   -377.935997                    
V  5   1991.867039  -3435.413275 -31262.127541     -0.020947                    
P  6  21574.753316  10433.784880  11903.276939    392.551058                    
V  6   8228.129729  12677.783885 -25903.882471     -0.136437                    
P  7   5428.263816 -25104.595450   6191.046436    167.596652                    
V  7   5195.230078  -6393.168520 -30959.273171      0.044290                    
P  8  -1857.479667 -20345.167729  16730.321862      3.943532                    
V  8  10766.878369 -18335.419905 -21795.124725      0.002122                    
P  9 -16328.502133  10348.541710  17683.084778    212.866465                    
V  9   6853.607251 -22512.904791  18877.383014      0.026529                    
P 10 -17860.024513 -10089.633359 -17376.562831    -65.740902                    
V 10  20930.748597  -4787.290737 -18633.821579     -0.014472                    
P 11  13433.499161 -16751.103938  15031.416402   -342.375198                    
V 11   2276.327545  20420.396540  20439.143832     -0.037701                    
P 12 -19883.095844  11554.228180 -13131.509899    111.746209                    
V 12 -16778.805656    426.069534  26006.832581      0.020477                    
P 13   -150.149962 -20491.181644 -16970.470438    153.376896                    
V 13  12999.869631  16903.198818 -20799.739864     -0.028844                    
P 14  14401.273416  22347.566305   1845.086793    219.428415                    
V 14  -3000.873323   -430.436965  31889.875041      0.004438                    
P 15 -14804.825916   6343.002663  21133.178754   -104.812416                    
V 15 -17251.274870 -20654.430346  -5632.365828     -0.011421                    
P 16  26521.947145   -932.862424  -3266.466217   -251.683986                    
V 16  -3853.352433   2276.969405 -31676.152894     -0.003127                    
P 17 -15857.147953 -21474.961862    535.754290     60.754524                    
V 17   2235.716679  -1151.727122  31674.029997     -0.036669                    
P 18   1148.580050  16105.094969  21459.735510    233.817962                    
V 18 -26226.384392   3891.507637  -1898.041073      0.018549                    
P 19  16262.684495  -1996.117534  20904.941742   -338.859606                    
V 19  14492.353565  22352.733043  -8706.668832     -0.033444                    
P 20  18473.482796 -14022.413872 -13048.381377     79.615929                    
V 20  16675.241701   -519.797919  24567.799098      0.014217                    
P 21  -1240.748027  24476.034135  10043.092868   -273.870696                    
V 21  -7707.023670  10180.352433 -27752.787169     -0.022957                    
P 22  14647.668628  12026.749945  18839.551351    155.441379                    
V 22 -23062.206940   5430.935238  14474.362140      0.009054                    
P 23   8551.836210 -13246.131153 -21265.078839    125.049242                    
V 23  17590.879348  20770.388395  -6222.309302     -0.037812                    
P 24 -15372.684331  18241.483272  11655.511878      0.848199                    
V 24   2795.638268 -14747.064026  26791.117140     -0.006675                    
P 25  -8421.630846  15335.852383 -19993.830416     62.122453                    
V 25 -25111.299684   3296.392349  13204.942401      0.025347                    
P 26 -18793.511087  -7844.816348  16610.861882   -142.598783                    
V 26 -11308.030995 -19069.065922 -20672.769485      0.137062                    
P 28 -10379.342621 -13135.309626  21248.888651    222.389191                    
V 28  25334.877678  -3323.217511  10420.260910      0.035479                    
P 29    283.971821  20236.896337 -17167.240488    396.716558                    
V 29 -14401.124399 -16547.421594 -19645.276888      0.038338                    
P 30  22247.179656   4217.422710 -14214.332342   -255.925363                    
V 30 -16320.925093   6535.529852 -24226.553023      0.109220                    
P 31  11597.179311   9854.820382 -21546.240062    297.012522                    
V 31 -10834.544928  25595.971002   6083.959140      0.019559                    
P 32  24226.225459  -7072.832572  -7228.500067   -525.142918                    
V 32   9766.161215   2689.755186  29983.429439     -0.034944                    
EOF
